[
    {
        "Altitude(m)": 624792.8054489555,
        "Argument of Periapsis(deg)": 0.0,
        "Eccentricity": 0.0,
        "Inclination(deg)": 60.0,
        "Latitude(deg)": -59.147188759311994,
        "Longitude(deg)": -100.97365455330497,
        "Mean Anomaly(deg)": -98.18180000000002,
        "RAAN(deg)": 105.0,
        "Satellite Name": "Test1 478",
        "Satellite Number": 478,
        "Semi-Major Axis(m)": 6980739.136638005,
        "Time(s)": 0
    },
    {
        "Altitude(m)": 624842.1976099268,
        "Argument of Periapsis(deg)": 0.00010418945913296404,
        "Eccentricity": 0.0,
        "Inclination(deg)": 60.0,
        "Latitude(deg)": -59.28927300377614,
        "Longitude(deg)": -99.84414745197965,
        "Mean Anomaly(deg)": -97.56169385453812,
        "RAAN(deg)": 104.99957995086028,
        "Satellite Name": "Test1 478",
        "Satellite Number": 478,
        "Semi-Major Axis(m)": 6980739.136638005,
        "Time(s)": 10
    }
]